STARLINK-1193
1 15100C 20006BJ  21326.14704875  .00004944  00000-0  33124-3 0  3269
2 15100  53.0525  88.0712 0001216  84.1275 331.0767 15.06397330    10
